LEMUR-2-ANDIS           
1 42838U 17042P   26068.55941107  .00023598  00000+0  79875-3 0  9998
2 42838  97.3659 249.7950 0009101   4.3248 355.8070 15.30557934473198
STARLINK-30169          
1 57499U 23113E   26068.17478772 -.00001723  00000+0 -53049-4 0  9998
2 57499  43.0048   4.7938 0002385 269.5550  90.5028 15.27589512143609
